{
  "type": "FeatureCollection",
  "features": [
    {
      "type": "Feature",
      "properties": {
        "norad_id": 30350,
        "name": "FENGYUN 1C DEB",
        "group": "fengyun-1c-debris",
        "lat": 70.60361759938388,
        "lon": 153.00652069771283,
        "alt_km": 1098.9030377230984,
        "timestamp": "2025-12-26T08:37:54.856152+00:00",
        "meta_object_name": "FENGYUN 1C DEB",
        "meta_object_id": "1999-025ABM",
        "meta_epoch": "2025-12-24T11:15:36.498816",
        "meta_mean_motion": 13.82835756,
        "meta_eccentricity": 0.02193134,
        "meta_inclination": 98.0924,
        "meta_ra_of_asc_node": 175.2133,
        "meta_arg_of_pericenter": 276.3105,
        "meta_mean_anomaly": 109.1612,
        "meta_ephemeris_type": 0,
        "meta_classification_type": "U",
        "meta_norad_cat_id": 30350,
        "meta_element_set_no": 999,
        "meta_rev_at_epoch": 95144,
        "meta_bstar": 0.00075883248,
        "meta_mean_motion_dot": 9.57e-06,
        "meta_mean_motion_ddot": 0,
        "tle_line1": "1 30350U 99025ABM 25358.46917244  .00000957  00000+0  75883-3 0  9990",
        "tle_line2": "2 30350  98.0924 175.2133 0219313 276.3105 109.1612 13.82835756951441"
      },
      "geometry": {
        "type": "Point",
        "coordinates": [
          153.00652069771283,
          70.60361759938388
        ]
      }
    },
    {
      "type": "Feature",
      "properties": {
        "norad_id": 30352,
        "name": "FENGYUN 1C DEB",
        "group": "fengyun-1c-debris",
        "lat": 61.854008691362466,
        "lon": -142.2104427901716,
        "alt_km": 880.6360017677553,
        "timestamp": "2025-12-26T08:37:54.856163+00:00",
        "meta_object_name": "FENGYUN 1C DEB",
        "meta_object_id": "1999-025ABP",
        "meta_epoch": "2025-12-25T23:52:17.421312",
        "meta_mean_motion": 14.07594107,
        "meta_eccentricity": 0.0027561,
        "meta_inclination": 98.7636,
        "meta_ra_of_asc_node": 20.6771,
        "meta_arg_of_pericenter": 280.6776,
        "meta_mean_anomaly": 147.5851,
        "meta_ephemeris_type": 0,
        "meta_classification_type": "U",
        "meta_norad_cat_id": 30352,
        "meta_element_set_no": 999,
        "meta_rev_at_epoch": 97097,
        "meta_bstar": 0.000244098,
        "meta_mean_motion_dot": 3.7e-06,
        "meta_mean_motion_ddot": 0,
        "tle_line1": "1 30352U 99025ABP 25359.99464608  .00000370  00000+0  24410-3 0  9991",
        "tle_line2": "2 30352  98.7636  20.6771 0027561 280.6776 147.5851 14.07594107970975"
      },
      "geometry": {
        "type": "Point",
        "coordinates": [
          -142.2104427901716,
          61.854008691362466
        ]
      }
    },
    {
      "type": "Feature",
      "properties": {
        "norad_id": 30355,
        "name": "FENGYUN 1C DEB",
        "group": "fengyun-1c-debris",
        "lat": -60.33342401434694,
        "lon": 19.670873226800637,
        "alt_km": 802.8440191405625,
        "timestamp": "2025-12-26T08:37:54.856174+00:00",
        "meta_object_name": "FENGYUN 1C DEB",
        "meta_object_id": "1999-025ABS",
        "meta_epoch": "2025-12-24T23:09:56.445696",
        "meta_mean_motion": 14.18851168,
        "meta_eccentricity": 0.00529732,
        "meta_inclination": 98.5889,
        "meta_ra_of_asc_node": 2.9338,
        "meta_arg_of_pericenter": 273.7619,
        "meta_mean_anomaly": 105.987,
        "meta_ephemeris_type": 0,
        "meta_classification_type": "U",
        "meta_norad_cat_id": 30355,
        "meta_element_set_no": 999,
        "meta_rev_at_epoch": 97524,
        "meta_bstar": 0.00059067138,
        "meta_mean_motion_dot": 1.203e-05,
        "meta_mean_motion_ddot": 0,
        "tle_line1": "1 30355U 99025ABS 25358.96523664  .00001203  00000+0  59067-3 0  9990",
        "tle_line2": "2 30355  98.5889   2.9338 0052973 273.7619 105.9870 14.18851168975241"
      },
      "geometry": {
        "type": "Point",
        "coordinates": [
          19.670873226800637,
          -60.33342401434694
        ]
      }
    },
    {
      "type": "Feature",
      "properties": {
        "norad_id": 30356,
        "name": "FENGYUN 1C DEB",
        "group": "fengyun-1c-debris",
        "lat": 4.894052009931168,
        "lon": 175.93947279943316,
        "alt_km": 841.070471203896,
        "timestamp": "2025-12-26T08:37:54.856184+00:00",
        "meta_object_name": "FENGYUN 1C DEB",
        "meta_object_id": "1999-025ABT",
        "meta_epoch": "2025-12-25T12:00:01.010016",
        "meta_mean_motion": 14.13066286,
        "meta_eccentricity": 0.0051975,
        "meta_inclination": 98.682,
        "meta_ra_of_asc_node": 354.3561,
        "meta_arg_of_pericenter": 252.1277,
        "meta_mean_anomaly": 232.7486,
        "meta_ephemeris_type": 0,
        "meta_classification_type": "U",
        "meta_norad_cat_id": 30356,
        "meta_element_set_no": 999,
        "meta_rev_at_epoch": 97201,
        "meta_bstar": 0.00062735,
        "meta_mean_motion_dot": 1.143e-05,
        "meta_mean_motion_ddot": 0,
        "tle_line1": "1 30356U 99025ABT 25359.50001169  .00001143  00000+0  62735-3 0  9992",
        "tle_line2": "2 30356  98.6820 354.3561 0051975 252.1277 232.7486 14.13066286972010"
      },
      "geometry": {
        "type": "Point",
        "coordinates": [
          175.93947279943316,
          4.894052009931168
        ]
      }
    },
    {
      "type": "Feature",
      "properties": {
        "norad_id": 30357,
        "name": "FENGYUN 1C DEB",
        "group": "fengyun-1c-debris",
        "lat": -18.67719067638289,
        "lon": 30.216848350027842,
        "alt_km": 857.8088471140018,
        "timestamp": "2025-12-26T08:37:54.856194+00:00",
        "meta_object_name": "FENGYUN 1C DEB",
        "meta_object_id": "1999-025ABU",
        "meta_epoch": "2025-12-25T12:57:24.857856",
        "meta_mean_motion": 14.0526863,
        "meta_eccentricity": 0.0048532,
        "meta_inclination": 98.805,
        "meta_ra_of_asc_node": 26.4176,
        "meta_arg_of_pericenter": 293.5887,
        "meta_mean_anomaly": 222.1907,
        "meta_ephemeris_type": 0,
        "meta_classification_type": "U",
        "meta_norad_cat_id": 30357,
        "meta_element_set_no": 999,
        "meta_rev_at_epoch": 96986,
        "meta_bstar": 0.00027358,
        "meta_mean_motion_dot": 4.04e-06,
        "meta_mean_motion_ddot": 0,
        "tle_line1": "1 30357U 99025ABU 25359.53987104  .00000404  00000+0  27358-3 0  9999",
        "tle_line2": "2 30357  98.8050  26.4176 0048532 293.5887 222.1907 14.05268630969866"
      },
      "geometry": {
        "type": "Point",
        "coordinates": [
          30.216848350027842,
          -18.67719067638289
        ]
      }
    },
    {
      "type": "Feature",
      "properties": {
        "norad_id": 30358,
        "name": "FENGYUN 1C DEB",
        "group": "fengyun-1c-debris",
        "lat": 46.8056921680402,
        "lon": 179.81658798855455,
        "alt_km": 840.8505382653866,
        "timestamp": "2025-12-26T08:37:54.856204+00:00",
        "meta_object_name": "FENGYUN 1C DEB",
        "meta_object_id": "1999-025ABV",
        "meta_epoch": "2025-12-25T12:23:23.980128",
        "meta_mean_motion": 14.20756673,
        "meta_eccentricity": 0.0082485,
        "meta_inclination": 98.5544,
        "meta_ra_of_asc_node": 188.2255,
        "meta_arg_of_pericenter": 162.4283,
        "meta_mean_anomaly": 254.6286,
        "meta_ephemeris_type": 0,
        "meta_classification_type": "U",
        "meta_norad_cat_id": 30358,
        "meta_element_set_no": 999,
        "meta_rev_at_epoch": 97099,
        "meta_bstar": 0.0016315,
        "meta_mean_motion_dot": 3.602e-05,
        "meta_mean_motion_ddot": 0,
        "tle_line1": "1 30358U 99025ABV 25359.51624977  .00003602  00000+0  16315-2 0  9997",
        "tle_line2": "2 30358  98.5544 188.2255 0082485 162.4283 254.6286 14.20756673970998"
      },
      "geometry": {
        "type": "Point",
        "coordinates": [
          179.81658798855455,
          46.8056921680402
        ]
      }
    },
    {
      "type": "Feature",
      "properties": {
        "norad_id": 30359,
        "name": "FENGYUN 1C DEB",
        "group": "fengyun-1c-debris",
        "lat": -25.242112840364953,
        "lon": 3.9757314331557776,
        "alt_km": 942.433279992546,
        "timestamp": "2025-12-26T08:37:54.856214+00:00",
        "meta_object_name": "FENGYUN 1C DEB",
        "meta_object_id": "1999-025ABW",
        "meta_epoch": "2025-12-25T10:57:56.608416",
        "meta_mean_motion": 13.94091333,
        "meta_eccentricity": 0.0145546,
        "meta_inclination": 101.6269,
        "meta_ra_of_asc_node": 188.4129,
        "meta_arg_of_pericenter": 311.1157,
        "meta_mean_anomaly": 47.7504,
        "meta_ephemeris_type": 0,
        "meta_classification_type": "U",
        "meta_norad_cat_id": 30359,
        "meta_element_set_no": 999,
        "meta_rev_at_epoch": 95246,
        "meta_bstar": 0.0029936,
        "meta_mean_motion_dot": 4.267e-05,
        "meta_mean_motion_ddot": 0,
        "tle_line1": "1 30359U 99025ABW 25359.45690519  .00004267  00000+0  29936-2 0  9997",
        "tle_line2": "2 30359 101.6269 188.4129 0145546 311.1157  47.7504 13.94091333952463"
      },
      "geometry": {
        "type": "Point",
        "coordinates": [
          3.9757314331557776,
          -25.242112840364953
        ]
      }
    }
  ]
}